STARLINK-36829          
1 67957U 26037AB  26068.91668981 -.00052383  00000+0 -24736-3 0  9999
2 67957  42.9990 196.9392 0001203 278.0626 306.1753 15.82049487  3236
STARLINK-36799          
1 67958U 26037AC  26068.91668981  .00014595  00000+0  71749-4 0  9998
2 67958  42.9988 196.9067 0001577 263.0507 334.0241 15.82009116  3236
STARLINK-36834          
1 67959U 26037AD  26068.91668981 -.00017737  00000+0 -81832-4 0  9996
2 67959  42.9990 196.8850 0001487 272.9871 332.6278 15.82027184  3231
STARLINK-36841          
1 67960U 26037AE  26068.91668981 -.00008503  00000+0 -37883-4 0  9996
2 67960  42.9990 196.8957 0001612 267.7156 333.6311 15.82019843  3231
STARLINK-36912          
1 67961U 26038A   26068.91668981 -.01544349  00000+0 -68872-2 0  9992
2 67961  97.2745  79.2046 0001357  85.4216 163.5427 15.86809147  3230
STARLINK-36881          
1 67962U 26038B   26068.91668981 -.01544744  00000+0 -68565-2 0  9991
2 67962  97.2743  79.2057 0001410  84.2780 167.8569 15.86904922  3235
STARLINK-36357          
1 67963U 26038C   26068.91668981 -.01542043  00000+0 -67510-2 0  9991
2 67963  97.2737  79.2096 0001327  82.0749 178.8421 15.87180152  3231
STARLINK-36349          
1 67964U 26038D   26068.91668981 -.01542148  00000+0 -67972-2 0  9990
2 67964  97.2735  79.2072 0001449  78.7463 177.7760 15.87042248  3231
STARLINK-36806          
1 67965U 26038E   26068.91668981 -.01510006  00000+0 -66964-2 0  9999
2 67965  97.2729  79.2113 0001337  85.4514 180.5792 15.87342094  3238
STARLINK-36820          
1 67966U 26038F   26068.91668981 -.01507882  00000+0 -66408-2 0  9991
2 67966  97.2729  79.2132 0001311  86.2094 184.0872 15.87477375  3233
STARLINK-36819          
1 67967U 26038G   26068.91668981 -.01508546  00000+0 -65972-2 0  9995
2 67967  97.2726  79.2151 0001276  87.8380 187.0673 15.87620675  3232
STARLINK-36812          
1 67968U 26038H   26068.91668981 -.01506642  00000+0 -65482-2 0  9997
2 67968  97.2720  79.2161 0001268  86.8557 191.9635 15.87740824  3235
