CCSDS_OMM_VERS = 2.0
CREATION_DATE  = 
ORIGINATOR     = 

OBJECT_NAME    = STARLINK-36829
OBJECT_ID      = 2026-037AB
CENTER_NAME    = EARTH
REF_FRAME      = TEME
TIME_SYSTEM    = UTC
MEAN_ELEMENT_THEORY = SGP/SGP4

EPOCH          = 2026-03-09T22:00:01.999584
MEAN_MOTION    = 15.82049487
ECCENTRICITY   = .00012034
INCLINATION    = 42.9990
RA_OF_ASC_NODE = 196.9392
ARG_OF_PERICENTER = 278.0626
MEAN_ANOMALY   = 306.1753

EPHEMERIS_TYPE = 0
CLASSIFICATION_TYPE = U
NORAD_CAT_ID   = 67957
ELEMENT_SET_NO = 999
REV_AT_EPOCH   = 323
BSTAR          = -.24736151E-3
MEAN_MOTION_DOT = -.52383E-3
MEAN_MOTION_DDOT = 0

CCSDS_OMM_VERS = 2.0
CREATION_DATE  = 
ORIGINATOR     = 

OBJECT_NAME    = STARLINK-36799
OBJECT_ID      = 2026-037AC
CENTER_NAME    = EARTH
REF_FRAME      = TEME
TIME_SYSTEM    = UTC
MEAN_ELEMENT_THEORY = SGP/SGP4

EPOCH          = 2026-03-09T22:00:01.999584
MEAN_MOTION    = 15.82009116
ECCENTRICITY   = .0001577
INCLINATION    = 42.9988
RA_OF_ASC_NODE = 196.9067
ARG_OF_PERICENTER = 263.0507
MEAN_ANOMALY   = 334.0241

EPHEMERIS_TYPE = 0
CLASSIFICATION_TYPE = U
NORAD_CAT_ID   = 67958
ELEMENT_SET_NO = 999
REV_AT_EPOCH   = 323
BSTAR          = .71748924E-4
MEAN_MOTION_DOT = .14595E-3
MEAN_MOTION_DDOT = 0

CCSDS_OMM_VERS = 2.0
CREATION_DATE  = 
ORIGINATOR     = 

OBJECT_NAME    = STARLINK-36834
OBJECT_ID      = 2026-037AD
CENTER_NAME    = EARTH
REF_FRAME      = TEME
TIME_SYSTEM    = UTC
MEAN_ELEMENT_THEORY = SGP/SGP4

EPOCH          = 2026-03-09T22:00:01.999584
MEAN_MOTION    = 15.82027184
ECCENTRICITY   = .00014874
INCLINATION    = 42.9990
RA_OF_ASC_NODE = 196.8850
ARG_OF_PERICENTER = 272.9871
MEAN_ANOMALY   = 332.6278

EPHEMERIS_TYPE = 0
CLASSIFICATION_TYPE = U
NORAD_CAT_ID   = 67959
ELEMENT_SET_NO = 999
REV_AT_EPOCH   = 323
BSTAR          = -.81832399E-4
MEAN_MOTION_DOT = -.17737E-3
MEAN_MOTION_DDOT = 0

CCSDS_OMM_VERS = 2.0
CREATION_DATE  = 
ORIGINATOR     = 

OBJECT_NAME    = STARLINK-36841
OBJECT_ID      = 2026-037AE
CENTER_NAME    = EARTH
REF_FRAME      = TEME
TIME_SYSTEM    = UTC
MEAN_ELEMENT_THEORY = SGP/SGP4

EPOCH          = 2026-03-09T22:00:01.999584
MEAN_MOTION    = 15.82019843
ECCENTRICITY   = .00016128
INCLINATION    = 42.9990
RA_OF_ASC_NODE = 196.8957
ARG_OF_PERICENTER = 267.7156
MEAN_ANOMALY   = 333.6311

EPHEMERIS_TYPE = 0
CLASSIFICATION_TYPE = U
NORAD_CAT_ID   = 67960
ELEMENT_SET_NO = 999
REV_AT_EPOCH   = 323
BSTAR          = -.37882506E-4
MEAN_MOTION_DOT = -.8503E-4
MEAN_MOTION_DDOT = 0

CCSDS_OMM_VERS = 2.0
CREATION_DATE  = 
ORIGINATOR     = 

OBJECT_NAME    = STARLINK-36912
OBJECT_ID      = 2026-038A
CENTER_NAME    = EARTH
REF_FRAME      = TEME
TIME_SYSTEM    = UTC
MEAN_ELEMENT_THEORY = SGP/SGP4

EPOCH          = 2026-03-09T22:00:01.999584
MEAN_MOTION    = 15.86809147
ECCENTRICITY   = .00013578
INCLINATION    = 97.2745
RA_OF_ASC_NODE = 79.2046
ARG_OF_PERICENTER = 85.4216
MEAN_ANOMALY   = 163.5427

EPHEMERIS_TYPE = 0
CLASSIFICATION_TYPE = U
NORAD_CAT_ID   = 67961
ELEMENT_SET_NO = 999
REV_AT_EPOCH   = 323
BSTAR          = -.68871528E-2
MEAN_MOTION_DOT = -.1544349E-1
MEAN_MOTION_DDOT = 0

CCSDS_OMM_VERS = 2.0
CREATION_DATE  = 
ORIGINATOR     = 

OBJECT_NAME    = STARLINK-36881
OBJECT_ID      = 2026-038B
CENTER_NAME    = EARTH
REF_FRAME      = TEME
TIME_SYSTEM    = UTC
MEAN_ELEMENT_THEORY = SGP/SGP4

EPOCH          = 2026-03-09T22:00:01.999584
MEAN_MOTION    = 15.86904922
ECCENTRICITY   = .00014105
INCLINATION    = 97.2743
RA_OF_ASC_NODE = 79.2057
ARG_OF_PERICENTER = 84.2780
MEAN_ANOMALY   = 167.8569

EPHEMERIS_TYPE = 0
CLASSIFICATION_TYPE = U
NORAD_CAT_ID   = 67962
ELEMENT_SET_NO = 999
REV_AT_EPOCH   = 323
BSTAR          = -.6856536E-2
MEAN_MOTION_DOT = -.1544744E-1
MEAN_MOTION_DDOT = 0

CCSDS_OMM_VERS = 2.0
CREATION_DATE  = 
ORIGINATOR     = 

OBJECT_NAME    = STARLINK-36357
OBJECT_ID      = 2026-038C
CENTER_NAME    = EARTH
REF_FRAME      = TEME
TIME_SYSTEM    = UTC
MEAN_ELEMENT_THEORY = SGP/SGP4

EPOCH          = 2026-03-09T22:00:01.999584
MEAN_MOTION    = 15.87180152
ECCENTRICITY   = .00013271
INCLINATION    = 97.2737
RA_OF_ASC_NODE = 79.2096
ARG_OF_PERICENTER = 82.0749
MEAN_ANOMALY   = 178.8421

EPHEMERIS_TYPE = 0
CLASSIFICATION_TYPE = U
NORAD_CAT_ID   = 67963
ELEMENT_SET_NO = 999
REV_AT_EPOCH   = 323
BSTAR          = -.67510266E-2
MEAN_MOTION_DOT = -.1542043E-1
MEAN_MOTION_DDOT = 0

CCSDS_OMM_VERS = 2.0
CREATION_DATE  = 
ORIGINATOR     = 

OBJECT_NAME    = STARLINK-36349
OBJECT_ID      = 2026-038D
CENTER_NAME    = EARTH
REF_FRAME      = TEME
TIME_SYSTEM    = UTC
MEAN_ELEMENT_THEORY = SGP/SGP4

EPOCH          = 2026-03-09T22:00:01.999584
MEAN_MOTION    = 15.87042248
ECCENTRICITY   = .00014491
INCLINATION    = 97.2735
RA_OF_ASC_NODE = 79.2072
ARG_OF_PERICENTER = 78.7463
MEAN_ANOMALY   = 177.7760

EPHEMERIS_TYPE = 0
CLASSIFICATION_TYPE = U
NORAD_CAT_ID   = 67964
ELEMENT_SET_NO = 999
REV_AT_EPOCH   = 323
BSTAR          = -.67971634E-2
MEAN_MOTION_DOT = -.1542148E-1
MEAN_MOTION_DDOT = 0

CCSDS_OMM_VERS = 2.0
CREATION_DATE  = 
ORIGINATOR     = 

OBJECT_NAME    = STARLINK-36806
OBJECT_ID      = 2026-038E
CENTER_NAME    = EARTH
REF_FRAME      = TEME
TIME_SYSTEM    = UTC
MEAN_ELEMENT_THEORY = SGP/SGP4

EPOCH          = 2026-03-09T22:00:01.999584
MEAN_MOTION    = 15.87342094
ECCENTRICITY   = .00013374
INCLINATION    = 97.2729
RA_OF_ASC_NODE = 79.2113
ARG_OF_PERICENTER = 85.4514
MEAN_ANOMALY   = 180.5792

EPHEMERIS_TYPE = 0
CLASSIFICATION_TYPE = U
NORAD_CAT_ID   = 67965
ELEMENT_SET_NO = 999
REV_AT_EPOCH   = 323
BSTAR          = -.66963874E-2
MEAN_MOTION_DOT = -.1510006E-1
MEAN_MOTION_DDOT = 0

CCSDS_OMM_VERS = 2.0
CREATION_DATE  = 
ORIGINATOR     = 

OBJECT_NAME    = STARLINK-36820
OBJECT_ID      = 2026-038F
CENTER_NAME    = EARTH
REF_FRAME      = TEME
TIME_SYSTEM    = UTC
MEAN_ELEMENT_THEORY = SGP/SGP4

EPOCH          = 2026-03-09T22:00:01.999584
MEAN_MOTION    = 15.87477375
ECCENTRICITY   = .0001311
INCLINATION    = 97.2729
RA_OF_ASC_NODE = 79.2132
ARG_OF_PERICENTER = 86.2094
MEAN_ANOMALY   = 184.0872

EPHEMERIS_TYPE = 0
CLASSIFICATION_TYPE = U
NORAD_CAT_ID   = 67966
ELEMENT_SET_NO = 999
REV_AT_EPOCH   = 323
BSTAR          = -.66407956E-2
MEAN_MOTION_DOT = -.1507882E-1
MEAN_MOTION_DDOT = 0

CCSDS_OMM_VERS = 2.0
CREATION_DATE  = 
ORIGINATOR     = 

OBJECT_NAME    = STARLINK-36819
OBJECT_ID      = 2026-038G
CENTER_NAME    = EARTH
REF_FRAME      = TEME
TIME_SYSTEM    = UTC
MEAN_ELEMENT_THEORY = SGP/SGP4

EPOCH          = 2026-03-09T22:00:01.999584
MEAN_MOTION    = 15.87620675
ECCENTRICITY   = .00012768
INCLINATION    = 97.2726
RA_OF_ASC_NODE = 79.2151
ARG_OF_PERICENTER = 87.8380
MEAN_ANOMALY   = 187.0673

EPHEMERIS_TYPE = 0
CLASSIFICATION_TYPE = U
NORAD_CAT_ID   = 67967
ELEMENT_SET_NO = 999
REV_AT_EPOCH   = 323
BSTAR          = -.6597182E-2
MEAN_MOTION_DOT = -.1508546E-1
MEAN_MOTION_DDOT = 0

CCSDS_OMM_VERS = 2.0
CREATION_DATE  = 
ORIGINATOR     = 

OBJECT_NAME    = STARLINK-36812
OBJECT_ID      = 2026-038H
CENTER_NAME    = EARTH
REF_FRAME      = TEME
TIME_SYSTEM    = UTC
MEAN_ELEMENT_THEORY = SGP/SGP4

EPOCH          = 2026-03-09T22:00:01.999584
MEAN_MOTION    = 15.87740824
ECCENTRICITY   = .00012685
INCLINATION    = 97.2720
RA_OF_ASC_NODE = 79.2161
ARG_OF_PERICENTER = 86.8557
MEAN_ANOMALY   = 191.9635

EPHEMERIS_TYPE = 0
CLASSIFICATION_TYPE = U
NORAD_CAT_ID   = 67968
ELEMENT_SET_NO = 999
REV_AT_EPOCH   = 323
BSTAR          = -.65482492E-2
MEAN_MOTION_DOT = -.1506642E-1
MEAN_MOTION_DDOT = 0

